{
  "type": "FeatureCollection",
  "features": [
    {
      "type": "Feature",
      "properties": {
        "norad_id": 37836,
        "name": "EUTELSAT 16A",
        "group": "eutelsat",
        "lat": -0.0023343684480788295,
        "lon": 165.12543191969314,
        "alt_km": 35793.535564086764,
        "timestamp": "2025-12-21T03:56:50.525557+00:00",
        "meta_object_name": "EUTELSAT 16A",
        "meta_object_id": "2011-057A",
        "meta_epoch": "2025-12-20T18:26:37.066848",
        "meta_mean_motion": 1.00269411,
        "meta_eccentricity": 0.0005859,
        "meta_inclination": 0.0595,
        "meta_ra_of_asc_node": 338.5773,
        "meta_arg_of_pericenter": 292.5457,
        "meta_mean_anomaly": 111.1332,
        "meta_ephemeris_type": 0,
        "meta_classification_type": "U",
        "meta_norad_cat_id": 37836,
        "meta_element_set_no": 999,
        "meta_rev_at_epoch": 553,
        "meta_bstar": 0,
        "meta_mean_motion_dot": 1.27e-06,
        "meta_mean_motion_ddot": 0,
        "tle_line1": "1 37836U 11057A   25354.76848457  .00000127  00000+0  00000+0 0  9997",
        "tle_line2": "2 37836   0.0595 338.5773 0005859 292.5457 111.1332  1.00269411  5534"
      },
      "geometry": {
        "type": "Point",
        "coordinates": [
          165.12543191969314,
          -0.0023343684480788295
        ]
      }
    },
    {
      "type": "Feature",
      "properties": {
        "norad_id": 38992,
        "name": "EUTELSAT 21B",
        "group": "eutelsat",
        "lat": -0.00985309144541519,
        "lon": 170.74914195424415,
        "alt_km": 35789.8299374466,
        "timestamp": "2025-12-21T03:56:50.525568+00:00",
        "meta_object_name": "EUTELSAT 21B",
        "meta_object_id": "2012-062B",
        "meta_epoch": "2025-12-20T18:28:06.923712",
        "meta_mean_motion": 1.00269187,
        "meta_eccentricity": 0.0003269,
        "meta_inclination": 0.0686,
        "meta_ra_of_asc_node": 340.6107,
        "meta_arg_of_pericenter": 292.9657,
        "meta_mean_anomaly": 114.6511,
        "meta_ephemeris_type": 0,
        "meta_classification_type": "U",
        "meta_norad_cat_id": 38992,
        "meta_element_set_no": 999,
        "meta_rev_at_epoch": 4803,
        "meta_bstar": 0,
        "meta_mean_motion_dot": 1.53e-06,
        "meta_mean_motion_ddot": 0,
        "tle_line1": "1 38992U 12062B   25354.76952458  .00000153  00000+0  00000+0 0  9994",
        "tle_line2": "2 38992   0.0686 340.6107 0003269 292.9657 114.6511  1.00269187 48032"
      },
      "geometry": {
        "type": "Point",
        "coordinates": [
          170.74914195424415,
          -0.00985309144541519
        ]
      }
    },
    {
      "type": "Feature",
      "properties": {
        "norad_id": 39020,
        "name": "EUTELSAT 70B",
        "group": "eutelsat",
        "lat": -0.051540836139415465,
        "lon": -140.34864515871308,
        "alt_km": 35771.29157587271,
        "timestamp": "2025-12-21T03:56:50.525579+00:00",
        "meta_object_name": "EUTELSAT 70B",
        "meta_object_id": "2012-069A",
        "meta_epoch": "2025-12-20T19:39:51.497856",
        "meta_mean_motion": 1.00271487,
        "meta_eccentricity": 0.0004264,
        "meta_inclination": 0.0612,
        "meta_ra_of_asc_node": 5.4669,
        "meta_arg_of_pericenter": 248.5924,
        "meta_mean_anomaly": 201.0429,
        "meta_ephemeris_type": 0,
        "meta_classification_type": "U",
        "meta_norad_cat_id": 39020,
        "meta_element_set_no": 999,
        "meta_rev_at_epoch": 4772,
        "meta_bstar": 0,
        "meta_mean_motion_dot": -2e-07,
        "meta_mean_motion_ddot": 0,
        "tle_line1": "1 39020U 12069A   25354.81934604 -.00000020  00000+0  00000+0 0  9997",
        "tle_line2": "2 39020   0.0612   5.4669 0004264 248.5924 201.0429  1.00271487 47723"
      },
      "geometry": {
        "type": "Point",
        "coordinates": [
          -140.34864515871308,
          -0.051540836139415465
        ]
      }
    },
    {
      "type": "Feature",
      "properties": {
        "norad_id": 39122,
        "name": "EUTELSAT 117 WEST A",
        "group": "eutelsat",
        "lat": 0.04084910305055459,
        "lon": 32.446076380100635,
        "alt_km": 35790.75756359857,
        "timestamp": "2025-12-21T03:56:50.525590+00:00",
        "meta_object_name": "EUTELSAT 117 WEST A",
        "meta_object_id": "2013-012A",
        "meta_epoch": "2025-12-20T16:05:44.642976",
        "meta_mean_motion": 1.00274638,
        "meta_eccentricity": 0.0002811,
        "meta_inclination": 0.0298,
        "meta_ra_of_asc_node": 302.6962,
        "meta_arg_of_pericenter": 332.2995,
        "meta_mean_anomaly": 299.1641,
        "meta_ephemeris_type": 0,
        "meta_classification_type": "U",
        "meta_norad_cat_id": 39122,
        "meta_element_set_no": 999,
        "meta_rev_at_epoch": 4664,
        "meta_bstar": 0,
        "meta_mean_motion_dot": 1e-07,
        "meta_mean_motion_ddot": 0,
        "tle_line1": "1 39122U 13012A   25354.67065559  .00000010  00000+0  00000+0 0  9995",
        "tle_line2": "2 39122   0.0298 302.6962 0002811 332.2995 299.1641  1.00274638 46644"
      },
      "geometry": {
        "type": "Point",
        "coordinates": [
          32.446076380100635,
          0.04084910305055459
        ]
      }
    },
    {
      "type": "Feature",
      "properties": {
        "norad_id": 39163,
        "name": "EUTELSAT 7B",
        "group": "eutelsat",
        "lat": 0.037166065566155246,
        "lon": 156.1731853783976,
        "alt_km": 35804.289996102954,
        "timestamp": "2025-12-21T03:56:50.525601+00:00",
        "meta_object_name": "EUTELSAT 7B",
        "meta_object_id": "2013-022A",
        "meta_epoch": "2025-12-20T18:23:59.818848",
        "meta_mean_motion": 1.00270857,
        "meta_eccentricity": 0.0004399,
        "meta_inclination": 0.0652,
        "meta_ra_of_asc_node": 0.0607,
        "meta_arg_of_pericenter": 322.5454,
        "meta_mean_anomaly": 49.9857,
        "meta_ephemeris_type": 0,
        "meta_classification_type": "U",
        "meta_norad_cat_id": 39163,
        "meta_element_set_no": 999,
        "meta_rev_at_epoch": 4615,
        "meta_bstar": 0,
        "meta_mean_motion_dot": 7.1e-07,
        "meta_mean_motion_ddot": 0,
        "tle_line1": "1 39163U 13022A   25354.76666457  .00000071  00000+0  00000+0 0  9992",
        "tle_line2": "2 39163   0.0652   0.0607 0004399 322.5454  49.9857  1.00270857 46158"
      },
      "geometry": {
        "type": "Point",
        "coordinates": [
          156.1731853783976,
          0.037166065566155246
        ]
      }
    },
    {
      "type": "Feature",
      "properties": {
        "norad_id": 39612,
        "name": "EXPRESS-AT1",
        "group": "eutelsat",
        "lat": -0.02351844316162098,
        "lon": -154.80306439219777,
        "alt_km": 35784.46047088977,
        "timestamp": "2025-12-21T03:56:50.525612+00:00",
        "meta_object_name": "EXPRESS-AT1",
        "meta_object_id": "2014-010A",
        "meta_epoch": "2025-12-20T20:31:38.478144",
        "meta_mean_motion": 1.00271794,
        "meta_eccentricity": 8.71e-05,
        "meta_inclination": 0.0145,
        "meta_ra_of_asc_node": 301.7936,
        "meta_arg_of_pericenter": 199.4835,
        "meta_mean_anomaly": 312.3147,
        "meta_ephemeris_type": 0,
        "meta_classification_type": "U",
        "meta_norad_cat_id": 39612,
        "meta_element_set_no": 999,
        "meta_rev_at_epoch": 4303,
        "meta_bstar": 0,
        "meta_mean_motion_dot": 1.02e-06,
        "meta_mean_motion_ddot": 0,
        "tle_line1": "1 39612U 14010A   25354.85530646  .00000102  00000+0  00000+0 0  9994",
        "tle_line2": "2 39612   0.0145 301.7936 0000871 199.4835 312.3147  1.00271794 43039"
      },
      "geometry": {
        "type": "Point",
        "coordinates": [
          -154.80306439219777,
          -0.02351844316162098
        ]
      }
    },
    {
      "type": "Feature",
      "properties": {
        "norad_id": 39613,
        "name": "EXPRESS-AT2",
        "group": "eutelsat",
        "lat": -0.03246827409410651,
        "lon": -70.95601077112872,
        "alt_km": 35781.90402598839,
        "timestamp": "2025-12-21T03:56:50.525623+00:00",
        "meta_object_name": "EXPRESS-AT2",
        "meta_object_id": "2014-010B",
        "meta_epoch": "2025-12-20T20:44:38.849856",
        "meta_mean_motion": 1.00271149,
        "meta_eccentricity": 0.0001039,
        "meta_inclination": 0.0184,
        "meta_ra_of_asc_node": 328.3981,
        "meta_arg_of_pericenter": 322.4883,
        "meta_mean_anomaly": 249.8231,
        "meta_ephemeris_type": 0,
        "meta_classification_type": "U",
        "meta_norad_cat_id": 39613,
        "meta_element_set_no": 999,
        "meta_rev_at_epoch": 4271,
        "meta_bstar": 0,
        "meta_mean_motion_dot": -2.58e-06,
        "meta_mean_motion_ddot": 0,
        "tle_line1": "1 39613U 14010B   25354.86433854 -.00000258  00000+0  00000+0 0  9992",
        "tle_line2": "2 39613   0.0184 328.3981 0001039 322.4883 249.8231  1.00271149 42712"
      },
      "geometry": {
        "type": "Point",
        "coordinates": [
          -70.95601077112872,
          -0.03246827409410651
        ]
      }
    }
  ]
}